ORBCOMM FM37            
1 33064U 08031E   25164.55980696  .00001563  00000+0  23346-3 0  9999
2 33064  48.4416   0.8790 0005197 354.1856  35.5727 14.79763836913515
ORBCOMM FM40            
1 33065U 08031F   25164.54991153  .00002721  00000+0  36596-3 0  9997
2 33065  48.4424 345.0234 0006136   8.1132  48.4164 14.82018457913625
VESSELSAT 1             
1 37840U 11058C   25164.56447815  .00000345  00000+0  43527-4 0  9991
2 37840  19.9609 115.8040 0013767 146.3466 213.7814 14.11353718705799
ORBCOMM FM109           
1 40086U 14040A   25164.07398051  .00000400  00000+0  12247-3 0  9990
2 40086  47.0047  35.7191 0002036 314.5136  45.5583 14.58172644580467
ORBCOMM FM107           
1 40087U 14040B   25164.03429645  .00000491  00000+0  14171-3 0  9999
2 40087  47.0062  36.8730 0001608 266.5598  93.5104 14.58239962580535
ORBCOMM FM106           
1 40088U 14040C   25164.56011566  .00000825  00000+0  16944-3 0  9998
2 40088  47.0592 216.7838 0016094  47.3156 312.9088 14.69440706582940
ORBCOMM FM111           
1 40089U 14040D   25164.18522693  .00003888  00000+0  45752-3 0  9996
2 40089  47.0021  69.2937 0030181 174.1269 185.9987 14.86290189589632
ORBCOMM FM104           
1 40090U 14040E   25164.15522217  .00000713  00000+0  19592-3 0  9994
2 40090  47.0058  69.8600 0016220 188.5491 171.5119 14.56644740580037
