<?xml version="1.0" encoding="UTF-8"?>
<ndm xmlns:xsi="http://www.w3.org/2001/XMLSchema-instance" xsi:noNamespaceSchemaLocation="https://sanaregistry.org/r/ndmxml_unqualified/ndmxml-2.0.0-master-2.0.xsd">
<omm id="CCSDS_OMM_VERS" version="2.0">
<header><CREATION_DATE/><ORIGINATOR/></header><body><segment><metadata><OBJECT_NAME>ORBCOMM FM37</OBJECT_NAME><OBJECT_ID>2008-031E</OBJECT_ID><CENTER_NAME>EARTH</CENTER_NAME><REF_FRAME>TEME</REF_FRAME><TIME_SYSTEM>UTC</TIME_SYSTEM><MEAN_ELEMENT_THEORY>SGP4</MEAN_ELEMENT_THEORY></metadata><data><meanElements><EPOCH>2025-06-13T13:26:07.321344</EPOCH><MEAN_MOTION>14.79763836</MEAN_MOTION><ECCENTRICITY>.0005197</ECCENTRICITY><INCLINATION>48.4416</INCLINATION><RA_OF_ASC_NODE>0.8790</RA_OF_ASC_NODE><ARG_OF_PERICENTER>354.1856</ARG_OF_PERICENTER><MEAN_ANOMALY>35.5727</MEAN_ANOMALY></meanElements><tleParameters><EPHEMERIS_TYPE>0</EPHEMERIS_TYPE><CLASSIFICATION_TYPE>U</CLASSIFICATION_TYPE><NORAD_CAT_ID>33064</NORAD_CAT_ID><ELEMENT_SET_NO>999</ELEMENT_SET_NO><REV_AT_EPOCH>91351</REV_AT_EPOCH><BSTAR>.23346E-3</BSTAR><MEAN_MOTION_DOT>.1563E-4</MEAN_MOTION_DOT><MEAN_MOTION_DDOT>0</MEAN_MOTION_DDOT></tleParameters></data></segment></body></omm>
<omm id="CCSDS_OMM_VERS" version="2.0">
<header><CREATION_DATE/><ORIGINATOR/></header><body><segment><metadata><OBJECT_NAME>ORBCOMM FM40</OBJECT_NAME><OBJECT_ID>2008-031F</OBJECT_ID><CENTER_NAME>EARTH</CENTER_NAME><REF_FRAME>TEME</REF_FRAME><TIME_SYSTEM>UTC</TIME_SYSTEM><MEAN_ELEMENT_THEORY>SGP4</MEAN_ELEMENT_THEORY></metadata><data><meanElements><EPOCH>2025-06-13T13:11:52.356192</EPOCH><MEAN_MOTION>14.82018457</MEAN_MOTION><ECCENTRICITY>.0006136</ECCENTRICITY><INCLINATION>48.4424</INCLINATION><RA_OF_ASC_NODE>345.0234</RA_OF_ASC_NODE><ARG_OF_PERICENTER>8.1132</ARG_OF_PERICENTER><MEAN_ANOMALY>48.4164</MEAN_ANOMALY></meanElements><tleParameters><EPHEMERIS_TYPE>0</EPHEMERIS_TYPE><CLASSIFICATION_TYPE>U</CLASSIFICATION_TYPE><NORAD_CAT_ID>33065</NORAD_CAT_ID><ELEMENT_SET_NO>999</ELEMENT_SET_NO><REV_AT_EPOCH>91362</REV_AT_EPOCH><BSTAR>.36596E-3</BSTAR><MEAN_MOTION_DOT>.2721E-4</MEAN_MOTION_DOT><MEAN_MOTION_DDOT>0</MEAN_MOTION_DDOT></tleParameters></data></segment></body></omm>
<omm id="CCSDS_OMM_VERS" version="2.0">
<header><CREATION_DATE/><ORIGINATOR/></header><body><segment><metadata><OBJECT_NAME>VESSELSAT 1</OBJECT_NAME><OBJECT_ID>2011-058C</OBJECT_ID><CENTER_NAME>EARTH</CENTER_NAME><REF_FRAME>TEME</REF_FRAME><TIME_SYSTEM>UTC</TIME_SYSTEM><MEAN_ELEMENT_THEORY>SGP4</MEAN_ELEMENT_THEORY></metadata><data><meanElements><EPOCH>2025-06-13T13:32:50.912160</EPOCH><MEAN_MOTION>14.11353718</MEAN_MOTION><ECCENTRICITY>.0013767</ECCENTRICITY><INCLINATION>19.9609</INCLINATION><RA_OF_ASC_NODE>115.8040</RA_OF_ASC_NODE><ARG_OF_PERICENTER>146.3466</ARG_OF_PERICENTER><MEAN_ANOMALY>213.7814</MEAN_ANOMALY></meanElements><tleParameters><EPHEMERIS_TYPE>0</EPHEMERIS_TYPE><CLASSIFICATION_TYPE>U</CLASSIFICATION_TYPE><NORAD_CAT_ID>37840</NORAD_CAT_ID><ELEMENT_SET_NO>999</ELEMENT_SET_NO><REV_AT_EPOCH>70579</REV_AT_EPOCH><BSTAR>.43527E-4</BSTAR><MEAN_MOTION_DOT>.345E-5</MEAN_MOTION_DOT><MEAN_MOTION_DDOT>0</MEAN_MOTION_DDOT></tleParameters></data></segment></body></omm>
<omm id="CCSDS_OMM_VERS" version="2.0">
<header><CREATION_DATE/><ORIGINATOR/></header><body><segment><metadata><OBJECT_NAME>ORBCOMM FM109</OBJECT_NAME><OBJECT_ID>2014-040A</OBJECT_ID><CENTER_NAME>EARTH</CENTER_NAME><REF_FRAME>TEME</REF_FRAME><TIME_SYSTEM>UTC</TIME_SYSTEM><MEAN_ELEMENT_THEORY>SGP4</MEAN_ELEMENT_THEORY></metadata><data><meanElements><EPOCH>2025-06-13T01:46:31.916064</EPOCH><MEAN_MOTION>14.58172644</MEAN_MOTION><ECCENTRICITY>.0002036</ECCENTRICITY><INCLINATION>47.0047</INCLINATION><RA_OF_ASC_NODE>35.7191</RA_OF_ASC_NODE><ARG_OF_PERICENTER>314.5136</ARG_OF_PERICENTER><MEAN_ANOMALY>45.5583</MEAN_ANOMALY></meanElements><tleParameters><EPHEMERIS_TYPE>0</EPHEMERIS_TYPE><CLASSIFICATION_TYPE>U</CLASSIFICATION_TYPE><NORAD_CAT_ID>40086</NORAD_CAT_ID><ELEMENT_SET_NO>999</ELEMENT_SET_NO><REV_AT_EPOCH>58046</REV_AT_EPOCH><BSTAR>.12247E-3</BSTAR><MEAN_MOTION_DOT>.4E-5</MEAN_MOTION_DOT><MEAN_MOTION_DDOT>0</MEAN_MOTION_DDOT></tleParameters></data></segment></body></omm>
<omm id="CCSDS_OMM_VERS" version="2.0">
<header><CREATION_DATE/><ORIGINATOR/></header><body><segment><metadata><OBJECT_NAME>ORBCOMM FM107</OBJECT_NAME><OBJECT_ID>2014-040B</OBJECT_ID><CENTER_NAME>EARTH</CENTER_NAME><REF_FRAME>TEME</REF_FRAME><TIME_SYSTEM>UTC</TIME_SYSTEM><MEAN_ELEMENT_THEORY>SGP4</MEAN_ELEMENT_THEORY></metadata><data><meanElements><EPOCH>2025-06-13T00:49:23.213280</EPOCH><MEAN_MOTION>14.58239962</MEAN_MOTION><ECCENTRICITY>.0001608</ECCENTRICITY><INCLINATION>47.0062</INCLINATION><RA_OF_ASC_NODE>36.8730</RA_OF_ASC_NODE><ARG_OF_PERICENTER>266.5598</ARG_OF_PERICENTER><MEAN_ANOMALY>93.5104</MEAN_ANOMALY></meanElements><tleParameters><EPHEMERIS_TYPE>0</EPHEMERIS_TYPE><CLASSIFICATION_TYPE>U</CLASSIFICATION_TYPE><NORAD_CAT_ID>40087</NORAD_CAT_ID><ELEMENT_SET_NO>999</ELEMENT_SET_NO><REV_AT_EPOCH>58053</REV_AT_EPOCH><BSTAR>.14171E-3</BSTAR><MEAN_MOTION_DOT>.491E-5</MEAN_MOTION_DOT><MEAN_MOTION_DDOT>0</MEAN_MOTION_DDOT></tleParameters></data></segment></body></omm>
<omm id="CCSDS_OMM_VERS" version="2.0">
<header><CREATION_DATE/><ORIGINATOR/></header><body><segment><metadata><OBJECT_NAME>ORBCOMM FM106</OBJECT_NAME><OBJECT_ID>2014-040C</OBJECT_ID><CENTER_NAME>EARTH</CENTER_NAME><REF_FRAME>TEME</REF_FRAME><TIME_SYSTEM>UTC</TIME_SYSTEM><MEAN_ELEMENT_THEORY>SGP4</MEAN_ELEMENT_THEORY></metadata><data><meanElements><EPOCH>2025-06-13T13:26:33.993024</EPOCH><MEAN_MOTION>14.69440706</MEAN_MOTION><ECCENTRICITY>.0016094</ECCENTRICITY><INCLINATION>47.0592</INCLINATION><RA_OF_ASC_NODE>216.7838</RA_OF_ASC_NODE><ARG_OF_PERICENTER>47.3156</ARG_OF_PERICENTER><MEAN_ANOMALY>312.9088</MEAN_ANOMALY></meanElements><tleParameters><EPHEMERIS_TYPE>0</EPHEMERIS_TYPE><CLASSIFICATION_TYPE>U</CLASSIFICATION_TYPE><NORAD_CAT_ID>40088</NORAD_CAT_ID><ELEMENT_SET_NO>999</ELEMENT_SET_NO><REV_AT_EPOCH>58294</REV_AT_EPOCH><BSTAR>.16944E-3</BSTAR><MEAN_MOTION_DOT>.825E-5</MEAN_MOTION_DOT><MEAN_MOTION_DDOT>0</MEAN_MOTION_DDOT></tleParameters></data></segment></body></omm>
<omm id="CCSDS_OMM_VERS" version="2.0">
<header><CREATION_DATE/><ORIGINATOR/></header><body><segment><metadata><OBJECT_NAME>ORBCOMM FM111</OBJECT_NAME><OBJECT_ID>2014-040D</OBJECT_ID><CENTER_NAME>EARTH</CENTER_NAME><REF_FRAME>TEME</REF_FRAME><TIME_SYSTEM>UTC</TIME_SYSTEM><MEAN_ELEMENT_THEORY>SGP4</MEAN_ELEMENT_THEORY></metadata><data><meanElements><EPOCH>2025-06-13T04:26:43.606752</EPOCH><MEAN_MOTION>14.86290189</MEAN_MOTION><ECCENTRICITY>.0030181</ECCENTRICITY><INCLINATION>47.0021</INCLINATION><RA_OF_ASC_NODE>69.2937</RA_OF_ASC_NODE><ARG_OF_PERICENTER>174.1269</ARG_OF_PERICENTER><MEAN_ANOMALY>185.9987</MEAN_ANOMALY></meanElements><tleParameters><EPHEMERIS_TYPE>0</EPHEMERIS_TYPE><CLASSIFICATION_TYPE>U</CLASSIFICATION_TYPE><NORAD_CAT_ID>40089</NORAD_CAT_ID><ELEMENT_SET_NO>999</ELEMENT_SET_NO><REV_AT_EPOCH>58963</REV_AT_EPOCH><BSTAR>.45752E-3</BSTAR><MEAN_MOTION_DOT>.3888E-4</MEAN_MOTION_DOT><MEAN_MOTION_DDOT>0</MEAN_MOTION_DDOT></tleParameters></data></segment></body></omm>
<omm id="CCSDS_OMM_VERS" version="2.0">
<header><CREATION_DATE/><ORIGINATOR/></header><body><segment><metadata><OBJECT_NAME>ORBCOMM FM104</OBJECT_NAME><OBJECT_ID>2014-040E</OBJECT_ID><CENTER_NAME>EARTH</CENTER_NAME><REF_FRAME>TEME</REF_FRAME><TIME_SYSTEM>UTC</TIME_SYSTEM><MEAN_ELEMENT_THEORY>SGP4</MEAN_ELEMENT_THEORY></metadata><data><meanElements><EPOCH>2025-06-13T03:43:31.195488</EPOCH><MEAN_MOTION>14.56644740</MEAN_MOTION><ECCENTRICITY>.001622</ECCENTRICITY><INCLINATION>47.0058</INCLINATION><RA_OF_ASC_NODE>69.8600</RA_OF_ASC_NODE><ARG_OF_PERICENTER>188.5491</ARG_OF_PERICENTER><MEAN_ANOMALY>171.5119</MEAN_ANOMALY></meanElements><tleParameters><EPHEMERIS_TYPE>0</EPHEMERIS_TYPE><CLASSIFICATION_TYPE>U</CLASSIFICATION_TYPE><NORAD_CAT_ID>40090</NORAD_CAT_ID><ELEMENT_SET_NO>999</ELEMENT_SET_NO><REV_AT_EPOCH>58003</REV_AT_EPOCH><BSTAR>.19592E-3</BSTAR><MEAN_MOTION_DOT>.713E-5</MEAN_MOTION_DOT><MEAN_MOTION_DDOT>0</MEAN_MOTION_DDOT></tleParameters></data></segment></body></omm>

</ndm>
